CCSDS_OMM_VERS = 2.0
CREATION_DATE  = 
ORIGINATOR     = 

OBJECT_NAME    = HULIANWANG DIGUI-121
OBJECT_ID      = 2025-295C
CENTER_NAME    = EARTH
REF_FRAME      = TEME
TIME_SYSTEM    = UTC
MEAN_ELEMENT_THEORY = SGP/SGP4

EPOCH          = 2026-01-07T05:31:39.815616
MEAN_MOTION    = 14.22771385
ECCENTRICITY   = .00109493
INCLINATION    = 50.0017
RA_OF_ASC_NODE = 264.7238
ARG_OF_PERICENTER = 336.8439
MEAN_ANOMALY   = 23.1979

EPHEMERIS_TYPE = 0
CLASSIFICATION_TYPE = U
NORAD_CAT_ID   = 67061
ELEMENT_SET_NO = 999
REV_AT_EPOCH   = 375
BSTAR          = .19807361E-3
MEAN_MOTION_DOT = .288E-5
MEAN_MOTION_DDOT = 0

CCSDS_OMM_VERS = 2.0
CREATION_DATE  = 
ORIGINATOR     = 

OBJECT_NAME    = HULIANWANG DIGUI-122
OBJECT_ID      = 2025-295D
CENTER_NAME    = EARTH
REF_FRAME      = TEME
TIME_SYSTEM    = UTC
MEAN_ELEMENT_THEORY = SGP/SGP4

EPOCH          = 2026-01-07T00:24:08.313696
MEAN_MOTION    = 14.23200322
ECCENTRICITY   = .001083
INCLINATION    = 50.0048
RA_OF_ASC_NODE = 265.6087
ARG_OF_PERICENTER = 341.1284
MEAN_ANOMALY   = 18.9226

EPHEMERIS_TYPE = 0
CLASSIFICATION_TYPE = U
NORAD_CAT_ID   = 67062
ELEMENT_SET_NO = 999
REV_AT_EPOCH   = 372
BSTAR          = .1832509E-3
MEAN_MOTION_DOT = .258E-5
MEAN_MOTION_DDOT = 0

CCSDS_OMM_VERS = 2.0
CREATION_DATE  = 
ORIGINATOR     = 

OBJECT_NAME    = HULIANWANG DIGUI-123
OBJECT_ID      = 2025-295E
CENTER_NAME    = EARTH
REF_FRAME      = TEME
TIME_SYSTEM    = UTC
MEAN_ELEMENT_THEORY = SGP/SGP4

EPOCH          = 2026-01-07T10:29:06.685152
MEAN_MOTION    = 14.23195801
ECCENTRICITY   = .0009714
INCLINATION    = 50.0044
RA_OF_ASC_NODE = 263.8344
ARG_OF_PERICENTER = 341.7305
MEAN_ANOMALY   = 18.3258

EPHEMERIS_TYPE = 0
CLASSIFICATION_TYPE = U
NORAD_CAT_ID   = 67063
ELEMENT_SET_NO = 999
REV_AT_EPOCH   = 378
BSTAR          = .14459E-3
MEAN_MOTION_DOT = .17E-5
MEAN_MOTION_DDOT = 0

CCSDS_OMM_VERS = 2.0
CREATION_DATE  = 
ORIGINATOR     = 

OBJECT_NAME    = HULIANWANG DIGUI-124
OBJECT_ID      = 2025-295F
CENTER_NAME    = EARTH
REF_FRAME      = TEME
TIME_SYSTEM    = UTC
MEAN_ELEMENT_THEORY = SGP/SGP4

EPOCH          = 2026-01-07T20:34:07.137984
MEAN_MOTION    = 14.22844136
ECCENTRICITY   = .0008137
INCLINATION    = 50.0002
RA_OF_ASC_NODE = 262.0332
ARG_OF_PERICENTER = 340.7156
MEAN_ANOMALY   = 19.3447

EPHEMERIS_TYPE = 0
CLASSIFICATION_TYPE = U
NORAD_CAT_ID   = 67064
ELEMENT_SET_NO = 999
REV_AT_EPOCH   = 384
BSTAR          = .11773E-3
MEAN_MOTION_DOT = .107E-5
MEAN_MOTION_DDOT = 0

CCSDS_OMM_VERS = 2.0
CREATION_DATE  = 
ORIGINATOR     = 

OBJECT_NAME    = HULIANWANG DIGUI-125
OBJECT_ID      = 2025-295G
CENTER_NAME    = EARTH
REF_FRAME      = TEME
TIME_SYSTEM    = UTC
MEAN_ELEMENT_THEORY = SGP/SGP4

EPOCH          = 2026-01-07T20:32:27.167136
MEAN_MOTION    = 14.23202974
ECCENTRICITY   = .0005931
INCLINATION    = 49.9975
RA_OF_ASC_NODE = 262.0079
ARG_OF_PERICENTER = 335.0916
MEAN_ANOMALY   = 24.9710

EPHEMERIS_TYPE = 0
CLASSIFICATION_TYPE = U
NORAD_CAT_ID   = 67065
ELEMENT_SET_NO = 999
REV_AT_EPOCH   = 384
BSTAR          = .10984E-3
MEAN_MOTION_DOT = .91E-6
MEAN_MOTION_DDOT = 0

CCSDS_OMM_VERS = 2.0
CREATION_DATE  = 
ORIGINATOR     = 

OBJECT_NAME    = HULIANWANG DIGUI-126
OBJECT_ID      = 2025-295H
CENTER_NAME    = EARTH
REF_FRAME      = TEME
TIME_SYSTEM    = UTC
MEAN_ELEMENT_THEORY = SGP/SGP4

EPOCH          = 2026-01-07T20:29:57.442848
MEAN_MOTION    = 14.23288571
ECCENTRICITY   = .00075225
INCLINATION    = 50.0037
RA_OF_ASC_NODE = 262.0099
ARG_OF_PERICENTER = 337.4231
MEAN_ANOMALY   = 22.6350

EPHEMERIS_TYPE = 0
CLASSIFICATION_TYPE = U
NORAD_CAT_ID   = 67066
ELEMENT_SET_NO = 999
REV_AT_EPOCH   = 384
BSTAR          = .77300445E-4
MEAN_MOTION_DOT = .17E-6
MEAN_MOTION_DDOT = 0

CCSDS_OMM_VERS = 2.0
CREATION_DATE  = 
ORIGINATOR     = 

OBJECT_NAME    = HULIANWANG DIGUI-127
OBJECT_ID      = 2025-295J
CENTER_NAME    = EARTH
REF_FRAME      = TEME
TIME_SYSTEM    = UTC
MEAN_ELEMENT_THEORY = SGP/SGP4

EPOCH          = 2026-01-07T20:28:23.354112
MEAN_MOTION    = 14.23314493
ECCENTRICITY   = .00069828
INCLINATION    = 50.0077
RA_OF_ASC_NODE = 262.0144
ARG_OF_PERICENTER = 344.1809
MEAN_ANOMALY   = 15.8885

EPHEMERIS_TYPE = 0
CLASSIFICATION_TYPE = U
NORAD_CAT_ID   = 67067
ELEMENT_SET_NO = 999
REV_AT_EPOCH   = 384
BSTAR          = -.37423094E-3
MEAN_MOTION_DOT = -.1013E-4
MEAN_MOTION_DDOT = 0

CCSDS_OMM_VERS = 2.0
CREATION_DATE  = 
ORIGINATOR     = 

OBJECT_NAME    = CZ-12 R/B
OBJECT_ID      = 2025-295K
CENTER_NAME    = EARTH
REF_FRAME      = TEME
TIME_SYSTEM    = UTC
MEAN_ELEMENT_THEORY = SGP/SGP4

EPOCH          = 2026-01-08T01:05:53.289888
MEAN_MOTION    = 14.41136462
ECCENTRICITY   = .0056869
INCLINATION    = 49.9929
RA_OF_ASC_NODE = 258.2832
ARG_OF_PERICENTER = 230.1598
MEAN_ANOMALY   = 129.4310

EPHEMERIS_TYPE = 0
CLASSIFICATION_TYPE = U
NORAD_CAT_ID   = 67068
ELEMENT_SET_NO = 999
REV_AT_EPOCH   = 390
BSTAR          = .42322E-4
MEAN_MOTION_DOT = -.28E-6
MEAN_MOTION_DDOT = 0

CCSDS_OMM_VERS = 2.0
CREATION_DATE  = 
ORIGINATOR     = 

OBJECT_NAME    = XIWANG-5 02
OBJECT_ID      = 2025-296A
CENTER_NAME    = EARTH
REF_FRAME      = TEME
TIME_SYSTEM    = UTC
MEAN_ELEMENT_THEORY = SGP/SGP4

EPOCH          = 2026-01-08T03:28:13.695744
MEAN_MOTION    = 15.13187980
ECCENTRICITY   = .000168
INCLINATION    = 41.3527
RA_OF_ASC_NODE = 311.4880
ARG_OF_PERICENTER = 346.0566
MEAN_ANOMALY   = 14.0207

EPHEMERIS_TYPE = 0
CLASSIFICATION_TYPE = U
NORAD_CAT_ID   = 67069
ELEMENT_SET_NO = 999
REV_AT_EPOCH   = 396
BSTAR          = .58776E-3
MEAN_MOTION_DOT = .10447E-3
MEAN_MOTION_DDOT = 0

CCSDS_OMM_VERS = 2.0
CREATION_DATE  = 
ORIGINATOR     = 

OBJECT_NAME    = DEAR-5
OBJECT_ID      = 2025-296B
CENTER_NAME    = EARTH
REF_FRAME      = TEME
TIME_SYSTEM    = UTC
MEAN_ELEMENT_THEORY = SGP/SGP4

EPOCH          = 2026-01-08T04:03:05.007744
MEAN_MOTION    = 15.17033904
ECCENTRICITY   = .0020329
INCLINATION    = 41.3574
RA_OF_ASC_NODE = 310.8085
ARG_OF_PERICENTER = 205.2852
MEAN_ANOMALY   = 154.6975

EPHEMERIS_TYPE = 0
CLASSIFICATION_TYPE = U
NORAD_CAT_ID   = 67070
ELEMENT_SET_NO = 999
REV_AT_EPOCH   = 396
BSTAR          = .19068E-3
MEAN_MOTION_DOT = .3659E-4
MEAN_MOTION_DDOT = 0

CCSDS_OMM_VERS = 2.0
CREATION_DATE  = 
ORIGINATOR     = 

OBJECT_NAME    = RAISE-4
OBJECT_ID      = 2025-297B
CENTER_NAME    = EARTH
REF_FRAME      = TEME
TIME_SYSTEM    = UTC
MEAN_ELEMENT_THEORY = SGP/SGP4

EPOCH          = 2026-01-07T22:07:49.937664
MEAN_MOTION    = 15.07431574
ECCENTRICITY   = .00117563
INCLINATION    = 97.4867
RA_OF_ASC_NODE = 159.7696
ARG_OF_PERICENTER = 222.5224
MEAN_ANOMALY   = 137.5094

EPHEMERIS_TYPE = 0
CLASSIFICATION_TYPE = U
NORAD_CAT_ID   = 67073
ELEMENT_SET_NO = 999
REV_AT_EPOCH   = 373
BSTAR          = .26231099E-3
MEAN_MOTION_DOT = .3918E-4
MEAN_MOTION_DDOT = 0

CCSDS_OMM_VERS = 2.0
CREATION_DATE  = 
ORIGINATOR     = 

OBJECT_NAME    = ELECTRON KICK STAGE R/B
OBJECT_ID      = 2025-297C
CENTER_NAME    = EARTH
REF_FRAME      = TEME
TIME_SYSTEM    = UTC
MEAN_ELEMENT_THEORY = SGP/SGP4

EPOCH          = 2026-01-08T03:31:47.532288
MEAN_MOTION    = 15.73159637
ECCENTRICITY   = .0148319
INCLINATION    = 97.4770
RA_OF_ASC_NODE = 162.0985
ARG_OF_PERICENTER = 172.8935
MEAN_ANOMALY   = 187.4482

EPHEMERIS_TYPE = 0
CLASSIFICATION_TYPE = U
NORAD_CAT_ID   = 67074
ELEMENT_SET_NO = 999
REV_AT_EPOCH   = 390
BSTAR          = .19201E-2
MEAN_MOTION_DOT = .527153E-2
MEAN_MOTION_DDOT = .89558E-4

