HULIANWANG DIGUI-121    
1 67061U 25295C   26007.23032194  .00000288  00000+0  19807-3 0  9997
2 67061  50.0017 264.7238 0010949 336.8439  23.1979 14.22771385  3752
HULIANWANG DIGUI-122    
1 67062U 25295D   26007.01676289  .00000258  00000+0  18325-3 0  9994
2 67062  50.0048 265.6087 0010830 341.1284  18.9226 14.23200322  3728
HULIANWANG DIGUI-123    
1 67063U 25295E   26007.43688293  .00000170  00000+0  14459-3 0  9996
2 67063  50.0044 263.8344 0009714 341.7305  18.3258 14.23195801  3780
HULIANWANG DIGUI-124    
1 67064U 25295F   26007.85702706  .00000107  00000+0  11773-3 0  9995
2 67064  50.0002 262.0332 0008137 340.7156  19.3447 14.22844136  3843
HULIANWANG DIGUI-125    
1 67065U 25295G   26007.85586999  .00000091  00000+0  10984-3 0  9995
2 67065  49.9975 262.0079 0005931 335.0916  24.9710 14.23202974  3842
HULIANWANG DIGUI-126    
1 67066U 25295H   26007.85413707  .00000017  00000+0  77300-4 0  9996
2 67066  50.0037 262.0099 0007522 337.4231  22.6350 14.23288571  3843
HULIANWANG DIGUI-127    
1 67067U 25295J   26007.85304808 -.00001013  00000+0 -37423-3 0  9998
2 67067  50.0077 262.0144 0006982 344.1809  15.8885 14.23314493  3844
CZ-12 R/B               
1 67068U 25295K   26008.04575567 -.00000028  00000+0  42322-4 0  9992
2 67068  49.9929 258.2832 0056869 230.1598 129.4310 14.41136462  3907
XIWANG-5 02             
1 67069U 25296A   26008.14460296  .00010447  00000+0  58776-3 0  9991
2 67069  41.3527 311.4880 0001680 346.0566  14.0207 15.13187980  3967
DEAR-5                  
1 67070U 25296B   26008.16880796  .00003659  00000+0  19068-3 0  9994
2 67070  41.3574 310.8085 0020329 205.2852 154.6975 15.17033904  3969
RAISE-4                 
1 67073U 25297B   26007.92210576  .00003918  00000+0  26231-3 0  9992
2 67073  97.4867 159.7696 0011756 222.5224 137.5094 15.07431574  3737
ELECTRON KICK STAGE R/B 
1 67074U 25297C   26008.14707792  .00527153  89558-4  19201-2 0  9999
2 67074  97.4770 162.0985 0148319 172.8935 187.4482 15.73159637  3905
